#aV2022 12  3  0  0  0.00000000     288 DD+AD WGS84 FIT  NGA
## 2238 518400.00000000   300.00000000 59916 0.0000000000000
+   31     1  2  3  4  5  6  7  8  9 10 11 12 13 14 15 16 17
+         18 19 20 21 22 23 24 25 26 27 29 30 31 32  0  0  0
+          0  0  0  0  0  0  0  0  0  0  0  0  0  0  0  0  0
+          0  0  0  0  0  0  0  0  0  0  0  0  0  0  0  0  0
+          0  0  0  0  0  0  0  0  0  0  0  0  0  0  0  0  0
++         2  2  2  2  2  2  2  2  2  2  2  2  2  2  2  2  2
++         2  2  2  2  2  2  2  2  2  2  2  2  2  2  0  0  0
++         0  0  0  0  0  0  0  0  0  0  0  0  0  0  0  0  0
++         0  0  0  0  0  0  0  0  0  0  0  0  0  0  0  0  0
++         0  0  0  0  0  0  0  0  0  0  0  0  0  0  0  0  0
%c cc cc ccc ccc cccc cccc cccc cccc ccccc ccccc ccccc ccccc
%c cc cc ccc ccc cccc cccc cccc cccc ccccc ccccc ccccc ccccc
%f  0.0000000  0.000000000  0.00000000000  0.000000000000000
%f  0.0000000  0.000000000  0.00000000000  0.000000000000000
%i    0    0    0    0      0      0      0      0         0
%i    0    0    0    0      0      0      0      0         0
/*      NGA, ST. LOUIS,MO.                                  
/*   EPHEMERIS COMPUTED FROM 2 DAYS OF DATA                 
/*   EPOCHA v8 SMOOTHER                                     
/*   G2139 IERS2010 SATIGS SATAPC                           
*  2022 12  3 22 20  0.00000000
P  1   4396.901119 -16854.875332 -20252.134283    242.719913                    
V  1  23010.634284  -9976.469294  13838.321355     -0.053543                    
P  2   -513.927448  17164.873606  20948.585200   -634.852735                    
V  2 -21873.944176  12341.313893 -10784.857683      0.019032                    
P  3  -4979.117264 -18423.265932 -18642.510288   -374.992337                    
V  3  20073.941627  11954.480151 -17185.153596     -0.006623                    
P  4    404.746837 -26322.278906   3067.370809    -75.171119                    
V  4   3222.752279  -3609.751546 -31524.232576      0.069684                    
P  5  -9055.214161  12110.757458  21665.993368   -106.702883                    
V  5 -23854.467686 -14491.583993  -1739.830592     -0.014517                    
P  6 -24283.836189   4735.628966  -9697.116104    532.608920                    
V  6  10359.393564  -6942.004185 -29049.948691      0.082480                    
P  7 -11803.352954 -11269.464247  21449.360187    279.350796                    
V  7  23360.695507 -11906.572977   6245.889245     -0.051188                    
P  8   6610.740431 -24180.310268   8137.184259    -96.894118                    
V  8   2521.364035  10602.234883  29666.103273     -0.018871                    
P  9  -8368.328449 -21481.736907  13069.004006   -259.106538                    
V  9   3148.425680 -16640.802453 -25225.800507      0.059383                    
P 10  23670.514340  10785.777234  -5982.801817    -14.545825                    
V 10   5345.363743   5927.850355  30692.751412     -0.015977                    
P 11 -23528.261599  12034.520100   2452.869750    -50.352800                    
V 11  -3931.474400  -1262.789115 -31658.403182     -0.068712                    
P 12   2699.062581  18638.938470 -19041.741324   -311.690141                    
V 12 -19385.612979 -13434.344344 -16026.972328     -0.045190                    
P 13 -12979.090277  18891.412588  13081.188937    435.730502                    
V 13   1159.754950 -17064.615324  25634.326314      0.066693                    
P 14 -22985.248617 -12770.689528  -4166.451436    -73.880413                    
V 14  -2571.261687  -5498.749563  30868.057551      0.059046                    
P 15  -3614.205074  25002.445186   7272.648381     -7.123852                    
V 15  -4560.667489  -9634.987082  29356.100723      0.032177                    
P 16  14316.487078  -7092.924244  21010.913234   -526.562668                    
V 16  20962.753894  17395.720960  -7847.108734      0.003736                    
P 17 -12876.716366  -9653.263410 -20671.805915    683.050800                    
V 17   4201.149051 -26931.241472   9829.938712      0.029888                    
P 18  13484.730094   9370.301246  20908.664255    -45.455171                    
V 18 -23641.705190  11933.854511   9760.645685     -0.144025                    
P 19 -15367.835535   2672.626328 -21692.310050    245.746503                    
V 19   3995.382531 -26704.689838  -6441.935222      0.050791                    
P 20 -19745.000231   4601.254924  17061.459950    465.929639                    
V 20 -18967.080226 -10868.954010 -19263.890103     -0.024867                    
P 21  12236.955644 -18428.195159 -13504.375819    154.673355                    
V 21  17301.316187  -7090.430057  25038.838460     -0.008591                    
P 22  15261.235857  -6388.219086 -20316.704754    377.391811                    
V 22  -2812.551904  26674.616516 -10459.429438      0.077915                    
P 23  20392.309985  16480.059226   4687.547229     -0.440128                    
V 23  -6249.176214  -1179.040789  31165.536751      0.004835                    
P 24  -7224.649401  19134.972430 -17058.482963     31.840669                    
V 24 -19421.463858   8982.874614  19099.780431     -0.168944                    
P 25  13457.692610  19437.527528 -12677.720595    398.666425                    
V 25 -14201.566290  -6648.918365 -25607.714042      0.036097                    
P 26  22274.400834    441.648778  14604.937594    237.529684                    
V 26  14931.069055  11440.725280 -22628.107572      0.009887                    
P 27  12510.238723 -15837.050918  16828.226655    162.621765                    
V 27    596.519108  22010.093072  20402.646002     -0.099540                    
P 29   4798.732069  23233.484856  11817.647010   -571.570080                    
V 29  -4030.917360  14656.928914 -27158.017143     -0.026740                    
P 30 -21429.922511  -2557.365635  15735.379723   -535.955268                    
V 30  16848.609138 -10626.140314  21085.103012      0.005475                    
P 31  24996.416003  -5248.765987  -8261.773864   -202.161102                    
V 31  -8180.756050   6472.647137 -28981.932365     -0.011714                    
P 32  14605.536769   6013.159791 -21227.042046   -317.349961                    
V 32  -1961.516894  27223.491928   6119.853844     -0.129784                    
EOF
